{"fetched_at":"2026-07-16T06:43:27.374Z","source":"https://celestrak.org/NORAD/elements/gp.php?NAME=WORLDVIEW&FORMAT=JSON","constellation":"worldview","records":[{"OBJECT_NAME":"WORLDVIEW-1 (WV-1)","OBJECT_ID":"2007-041A","EPOCH":"2026-07-15T21:52:26.321664","CLASSIFICATION_TYPE":"U","MEAN_MOTION":15.24563308,"ECCENTRICITY":0.00015937,"INCLINATION":97.3907,"RA_OF_ASC_NODE":316.2522,"ARG_OF_PERICENTER":202.982,"MEAN_ANOMALY":157.1347,"EPHEMERIS_TYPE":0,"NORAD_CAT_ID":32060,"ELEMENT_SET_NO":999,"REV_AT_EPOCH":4725,"BSTAR":0.0001327535,"MEAN_MOTION_DOT":0.00003198,"MEAN_MOTION_DDOT":0},{"OBJECT_NAME":"WORLDVIEW-2 (WV-2)","OBJECT_ID":"2009-055A","EPOCH":"2026-07-15T21:39:58.672224","CLASSIFICATION_TYPE":"U","MEAN_MOTION":14.37907022,"ECCENTRICITY":0.00053424,"INCLINATION":98.4756,"RA_OF_ASC_NODE":269.9614,"ARG_OF_PERICENTER":128.1106,"MEAN_ANOMALY":232.0564,"EPHEMERIS_TYPE":0,"NORAD_CAT_ID":35946,"ELEMENT_SET_NO":999,"REV_AT_EPOCH":87977,"BSTAR":0.000028366674,"MEAN_MOTION_DOT":4.2e-7,"MEAN_MOTION_DDOT":0},{"OBJECT_NAME":"WORLDVIEW-3 (WV-3)","OBJECT_ID":"2014-048A","EPOCH":"2026-07-15T20:54:09.786240","CLASSIFICATION_TYPE":"U","MEAN_MOTION":14.85064838,"ECCENTRICITY":0.00013524,"INCLINATION":97.8556,"RA_OF_ASC_NODE":271.3068,"ARG_OF_PERICENTER":154.8862,"MEAN_ANOMALY":205.2419,"EPHEMERIS_TYPE":0,"NORAD_CAT_ID":40115,"ELEMENT_SET_NO":999,"REV_AT_EPOCH":64616,"BSTAR":0.000051720941,"MEAN_MOTION_DOT":0.00000388,"MEAN_MOTION_DDOT":0}]}
